[
    {
        "Altitude(m)": 553815.7103882285,
        "Argument of Periapsis(deg)": 0.013245982221427002,
        "Eccentricity": 0.0,
        "Inclination(deg)": 53.0,
        "Latitude(deg)": 19.96600032287071,
        "Longitude(deg)": -32.375884767549294,
        "Mean Anomaly(deg)": -205.2713142648448,
        "RAAN(deg)": 264.9802867370561,
        "Satellite Name": "Starlink Shell 1 1174",
        "Satellite Number": 1174,
        "Semi-Major Axis(m)": 6931778.249405717,
        "Time(s)": 380
    },
    {
        "Altitude(m)": 553777.6654054376,
        "Argument of Periapsis(deg)": 0.013594560700938237,
        "Eccentricity": 0.0,
        "Inclination(deg)": 53.0,
        "Latitude(deg)": 19.48094586205908,
        "Longitude(deg)": -31.992280107906325,
        "Mean Anomaly(deg)": -204.64448306128816,
        "RAAN(deg)": 264.97976796697856,
        "Satellite Name": "Starlink Shell 1 1174",
        "Satellite Number": 1174,
        "Semi-Major Axis(m)": 6931778.249405717,
        "Time(s)": 390
    },
    {
        "Altitude(m)": 553741.7450580441,
        "Argument of Periapsis(deg)": 0.013943139180449475,
        "Eccentricity": 0.0,
        "Inclination(deg)": 53.0,
        "Latitude(deg)": 18.994877226202775,
        "Longitude(deg)": -31.611200125639808,
        "Mean Anomaly(deg)": -204.01765185773135,
        "RAAN(deg)": 264.9792491969011,
        "Satellite Name": "Starlink Shell 1 1174",
        "Satellite Number": 1174,
        "Semi-Major Axis(m)": 6931778.249405717,
        "Time(s)": 400
    },
    {
        "Altitude(m)": 553707.9883035315,
        "Argument of Periapsis(deg)": 0.014291717659960712,
        "Eccentricity": 0.0,
        "Inclination(deg)": 53.0,
        "Latitude(deg)": 18.5078272492195,
        "Longitude(deg)": -31.232567257371073,
        "Mean Anomaly(deg)": -203.39082065417466,
        "RAAN(deg)": 264.97873042682363,
        "Satellite Name": "Starlink Shell 1 1174",
        "Satellite Number": 1174,
        "Semi-Major Axis(m)": 6931778.249405717,
        "Time(s)": 410
    },
    {
        "Altitude(m)": 553676.4331623183,
        "Argument of Periapsis(deg)": 0.014640296139471948,
        "Eccentricity": 0.0,
        "Inclination(deg)": 53.0,
        "Latitude(deg)": 18.01982820723468,
        "Longitude(deg)": -30.85630544746181,
        "Mean Anomaly(deg)": -202.76398945061797,
        "RAAN(deg)": 264.97821165674617,
        "Satellite Name": "Starlink Shell 1 1174",
        "Satellite Number": 1174,
        "Semi-Major Axis(m)": 6931778.249405717,
        "Time(s)": 420
    },
    {
        "Altitude(m)": 553647.1166963668,
        "Argument of Periapsis(deg)": 0.014988874618983185,
        "Eccentricity": 0.0,
        "Inclination(deg)": 53.0,
        "Latitude(deg)": 17.530911838673408,
        "Longitude(deg)": -30.48233961799792,
        "Mean Anomaly(deg)": -202.13715824706128,
        "RAAN(deg)": 264.97769288666865,
        "Satellite Name": "Starlink Shell 1 1174",
        "Satellite Number": 1174,
        "Semi-Major Axis(m)": 6931778.249405717,
        "Time(s)": 430
    },
    {
        "Altitude(m)": 553620.0749882312,
        "Argument of Periapsis(deg)": 0.015337453098494424,
        "Eccentricity": 0.0,
        "Inclination(deg)": 53.0,
        "Latitude(deg)": 17.041109363906354,
        "Longitude(deg)": -30.110595138475063,
        "Mean Anomaly(deg)": -201.51032704350456,
        "RAAN(deg)": 264.9771741165912,
        "Satellite Name": "Starlink Shell 1 1174",
        "Satellite Number": 1174,
        "Semi-Major Axis(m)": 6931778.249405717,
        "Time(s)": 440
    },
    {
        "Altitude(m)": 553595.3431205963,
        "Argument of Periapsis(deg)": 0.01568603157800566,
        "Eccentricity": 0.0,
        "Inclination(deg)": 53.0,
        "Latitude(deg)": 16.550451504458817,
        "Longitude(deg)": -29.740998808106124,
        "Mean Anomaly(deg)": -200.8834958399478,
        "RAAN(deg)": 264.9766553465137,
        "Satellite Name": "Starlink Shell 1 1174",
        "Satellite Number": 1174,
        "Semi-Major Axis(m)": 6931778.249405717,
        "Time(s)": 450
    },
    {
        "Altitude(m)": 553572.9551562608,
        "Argument of Periapsis(deg)": 0.0160346100575169,
        "Eccentricity": 0.0,
        "Inclination(deg)": 53.0,
        "Latitude(deg)": 16.058968501799164,
        "Longitude(deg)": -29.373478325050794,
        "Mean Anomaly(deg)": -200.2566646363911,
        "RAAN(deg)": 264.97613657643626,
        "Satellite Name": "Starlink Shell 1 1174",
        "Satellite Number": 1174,
        "Semi-Major Axis(m)": 6931778.249405717,
        "Time(s)": 460
    },
    {
        "Altitude(m)": 553552.9441186327,
        "Argument of Periapsis(deg)": 0.016383188537028134,
        "Eccentricity": 0.0,
        "Inclination(deg)": 53.0,
        "Latitude(deg)": 15.566690135716525,
        "Longitude(deg)": -29.00796175548073,
        "Mean Anomaly(deg)": -199.6298334328344,
        "RAAN(deg)": 264.9756178063588,
        "Satellite Name": "Starlink Shell 1 1174",
        "Satellite Number": 1174,
        "Semi-Major Axis(m)": 6931778.249405717,
        "Time(s)": 470
    },
    {
        "Altitude(m)": 553535.3419727035,
        "Argument of Periapsis(deg)": 0.01673176701653937,
        "Eccentricity": 0.0,
        "Inclination(deg)": 53.0,
        "Latitude(deg)": 15.073645742296549,
        "Longitude(deg)": -28.644378515388553,
        "Mean Anomaly(deg)": -199.00300222927768,
        "RAAN(deg)": 264.97509903628134,
        "Satellite Name": "Starlink Shell 1 1174",
        "Satellite Number": 1174,
        "Semi-Major Axis(m)": 6931778.249405717,
        "Time(s)": 480
    },
    {
        "Altitude(m)": 553520.1796065244,
        "Argument of Periapsis(deg)": 0.017080345496050607,
        "Eccentricity": 0.0,
        "Inclination(deg)": 53.0,
        "Latitude(deg)": 14.579864231513572,
        "Longitude(deg)": -28.282658839429097,
        "Mean Anomaly(deg)": -198.3761710257209,
        "RAAN(deg)": 264.9745802662038,
        "Satellite Name": "Starlink Shell 1 1174",
        "Satellite Number": 1174,
        "Semi-Major Axis(m)": 6931778.249405717,
        "Time(s)": 490
    },
    {
        "Altitude(m)": 553507.4868132313,
        "Argument of Periapsis(deg)": 0.017428923975561842,
        "Eccentricity": 0.0,
        "Inclination(deg)": 53.0,
        "Latitude(deg)": 14.085374104448018,
        "Longitude(deg)": -27.922733249694485,
        "Mean Anomaly(deg)": -197.74933982216425,
        "RAAN(deg)": 264.9740614961264,
        "Satellite Name": "Starlink Shell 1 1174",
        "Satellite Number": 1174,
        "Semi-Major Axis(m)": 6931778.249405717,
        "Time(s)": 500
    },
    {
        "Altitude(m)": 553497.2922735623,
        "Argument of Periapsis(deg)": 0.01777750245507308,
        "Eccentricity": 0.0,
        "Inclination(deg)": 53.0,
        "Latitude(deg)": 13.590203470139098,
        "Longitude(deg)": -27.564533537321626,
        "Mean Anomaly(deg)": -197.1225086186075,
        "RAAN(deg)": 264.9735427260489,
        "Satellite Name": "Starlink Shell 1 1174",
        "Satellite Number": 1174,
        "Semi-Major Axis(m)": 6931778.249405717,
        "Time(s)": 510
    },
    {
        "Altitude(m)": 553489.6235389389,
        "Argument of Periapsis(deg)": 0.018126080934584315,
        "Eccentricity": 0.0,
        "Inclination(deg)": 53.0,
        "Latitude(deg)": 13.094380062091515,
        "Longitude(deg)": -27.207992231210266,
        "Mean Anomaly(deg)": -196.49567741505084,
        "RAAN(deg)": 264.9730239559714,
        "Satellite Name": "Starlink Shell 1 1174",
        "Satellite Number": 1174,
        "Semi-Major Axis(m)": 6931778.249405717,
        "Time(s)": 520
    },
    {
        "Altitude(m)": 553484.5070150715,
        "Argument of Periapsis(deg)": 0.018474659414095554,
        "Eccentricity": 0.0,
        "Inclination(deg)": 53.0,
        "Latitude(deg)": 12.597931254444244,
        "Longitude(deg)": -26.853042066744813,
        "Mean Anomaly(deg)": -195.86884621149412,
        "RAAN(deg)": 264.97250518589397,
        "Satellite Name": "Starlink Shell 1 1174",
        "Satellite Number": 1174,
        "Semi-Major Axis(m)": 6931778.249405717,
        "Time(s)": 530
    },
    {
        "Altitude(m)": 553481.9679461477,
        "Argument of Periapsis(deg)": 0.018823237893606792,
        "Eccentricity": 0.0,
        "Inclination(deg)": 53.0,
        "Latitude(deg)": 12.100884077813689,
        "Longitude(deg)": -26.499616967410148,
        "Mean Anomaly(deg)": -195.2420150079374,
        "RAAN(deg)": 264.9719864158165,
        "Satellite Name": "Starlink Shell 1 1174",
        "Satellite Number": 1174,
        "Semi-Major Axis(m)": 6931778.249405717,
        "Time(s)": 540
    },
    {
        "Altitude(m)": 553482.0303995615,
        "Argument of Periapsis(deg)": 0.019171816373118027,
        "Eccentricity": 0.0,
        "Inclination(deg)": 53.0,
        "Latitude(deg)": 11.60326523482666,
        "Longitude(deg)": -26.147651513571272,
        "Mean Anomaly(deg)": -194.61518380438065,
        "RAAN(deg)": 264.971467645739,
        "Satellite Name": "Starlink Shell 1 1174",
        "Satellite Number": 1174,
        "Semi-Major Axis(m)": 6931778.249405717,
        "Time(s)": 550
    },
    {
        "Altitude(m)": 553484.71725122,
        "Argument of Periapsis(deg)": 0.019520394852629266,
        "Eccentricity": 0.0,
        "Inclination(deg)": 53.0,
        "Latitude(deg)": 11.105101115355197,
        "Longitude(deg)": -25.797080411303494,
        "Mean Anomaly(deg)": -193.98835260082393,
        "RAAN(deg)": 264.9709488756615,
        "Satellite Name": "Starlink Shell 1 1174",
        "Satellite Number": 1174,
        "Semi-Major Axis(m)": 6931778.249405717,
        "Time(s)": 560
    }
]